{"type": "FeatureCollection", "features": [ {"type": "Feature", "properties": {"norad_id": 30941, "name": "FENGYUN 1C DEB", "group": "fengyun-1c-debris", "lat": -14.869291555271868, "lon": -148.00580902253134, "alt_km": 775.8873798292925, "timestamp": "2025-12-18T23:35:49.340206+00:00", "meta": {"OBJECT_NAME": "FENGYUN 1C DEB", "OBJECT_ID": "1999-025BAF", "EPOCH": "2025-12-16T12:56:12.185952", "MEAN_MOTION": 14.3107633, "ECCENTRICITY": 0.00338881, "INCLINATION": 98.5491, "RA_OF_ASC_NODE": 207.3009, "ARG_OF_PERICENTER": 306.0217, "MEAN_ANOMALY": 53.7827, "EPHEMERIS_TYPE": 0, "CLASSIFICATION_TYPE": "U", "NORAD_CAT_ID": 30941, "ELEMENT_SET_NO": 999, "REV_AT_EPOCH": 96680, "BSTAR": 0.0015073609, "MEAN_MOTION_DOT": 3.955e-05, "MEAN_MOTION_DDOT": 0}, "tle": {"line1": "1 30941U 99025BAF 25350.53902993  .00003955  00000+0  15074-2 0  9997", "line2": "2 30941  98.5491 207.3009 0033888 306.0217  53.7827 14.31076330966804"}}, "geometry": {"type": "Point", "coordinates": [-148.00580902253134, -14.869291555271868]}}, {"type": "Feature", "properties": {"norad_id": 30942, "name": "FENGYUN 1C DEB", "group": "fengyun-1c-debris", "lat": -13.49739688758283, "lon": -6.843930038385217, "alt_km": 866.8446230547561, "timestamp": "2025-12-18T23:35:49.340216+00:00", "meta": {"OBJECT_NAME": "FENGYUN 1C DEB", "OBJECT_ID": "1999-025BAG", "EPOCH": "2025-12-16T18:08:59.972352", "MEAN_MOTION": 14.1484202, "ECCENTRICITY": 0.01380243, "INCLINATION": 98.6797, "RA_OF_ASC_NODE": 348.8885, "ARG_OF_PERICENTER": 94.8865, "MEAN_ANOMALY": 76.6147, "EPHEMERIS_TYPE": 0, "CLASSIFICATION_TYPE": "U", "NORAD_CAT_ID": 30942, "ELEMENT_SET_NO": 999, "REV_AT_EPOCH": 96701, "BSTAR": 0.0002068947, "MEAN_MOTION_DOT": 3.96e-06, "MEAN_MOTION_DDOT": 0}, "tle": {"line1": "1 30942U 99025BAG 25350.75624968  .00000396  00000+0  20689-3 0  9990", "line2": "2 30942  98.6797 348.8885 0138024  94.8865  76.6147 14.14842020967018"}}, "geometry": {"type": "Point", "coordinates": [-6.843930038385217, -13.49739688758283]}}, {"type": "Feature", "properties": {"norad_id": 30943, "name": "FENGYUN 1C DEB", "group": "fengyun-1c-debris", "lat": 80.18662643012804, "lon": -109.74917717056046, "alt_km": 845.1349451531096, "timestamp": "2025-12-18T23:35:49.340226+00:00", "meta": {"OBJECT_NAME": "FENGYUN 1C DEB", "OBJECT_ID": "1999-025BAH", "EPOCH": "2025-12-16T06:11:00.155616", "MEAN_MOTION": 14.04492174, "ECCENTRICITY": 0.00507402, "INCLINATION": 98.7971, "RA_OF_ASC_NODE": 4.0685, "ARG_OF_PERICENTER": 56.0453, "MEAN_ANOMALY": 304.5522, "EPHEMERIS_TYPE": 0, "CLASSIFICATION_TYPE": "U", "NORAD_CAT_ID": 30943, "ELEMENT_SET_NO": 999, "REV_AT_EPOCH": 95791, "BSTAR": 0.00044951909, "MEAN_MOTION_DOT": 6.83e-06, "MEAN_MOTION_DDOT": 0}, "tle": {"line1": "1 30943U 99025BAH 25350.25764069  .00000683  00000+0  44952-3 0  9991", "line2": "2 30943  98.7971   4.0685 0050740  56.0453 304.5522 14.04492174957912"}}, "geometry": {"type": "Point", "coordinates": [-109.74917717056046, 80.18662643012804]}}, {"type": "Feature", "properties": {"norad_id": 30944, "name": "FENGYUN 1C DEB", "group": "fengyun-1c-debris", "lat": -80.96021832166299, "lon": 127.33520857330237, "alt_km": 829.3263341918437, "timestamp": "2025-12-18T23:35:49.340237+00:00", "meta": {"OBJECT_NAME": "FENGYUN 1C DEB", "OBJECT_ID": "1999-025BAJ", "EPOCH": "2025-12-18T02:39:13.502016", "MEAN_MOTION": 14.5245153, "ECCENTRICITY": 0.01493413, "INCLINATION": 98.8497, "RA_OF_ASC_NODE": 48.1008, "ARG_OF_PERICENTER": 84.5252, "MEAN_ANOMALY": 307.373, "EPHEMERIS_TYPE": 0, "CLASSIFICATION_TYPE": "U", "NORAD_CAT_ID": 30944, "ELEMENT_SET_NO": 999, "REV_AT_EPOCH": 99154, "BSTAR": 0.00011571499, "MEAN_MOTION_DOT": 4.89e-06, "MEAN_MOTION_DDOT": 0}, "tle": {"line1": "1 30944U 99025BAJ 25352.11057294  .00000489  00000+0  11571-3 0  9999", "line2": "2 30944  98.8497  48.1008 0149341  84.5252 307.3730 14.52451530991547"}}, "geometry": {"type": "Point", "coordinates": [127.33520857330237, -80.96021832166299]}}, {"type": "Feature", "properties": {"norad_id": 30945, "name": "FENGYUN 1C DEB", "group": "fengyun-1c-debris", "lat": -52.855037193216205, "lon": 169.51605083233366, "alt_km": 817.8035829398086, "timestamp": "2025-12-18T23:35:49.340247+00:00", "meta": {"OBJECT_NAME": "FENGYUN 1C DEB", "OBJECT_ID": "1999-025BAK", "EPOCH": "2025-12-16T06:45:55.175904", "MEAN_MOTION": 14.29744942, "ECCENTRICITY": 0.00305457, "INCLINATION": 99.3902, "RA_OF_ASC_NODE": 359.2236, "ARG_OF_PERICENTER": 28.5823, "MEAN_ANOMALY": 349.1653, "EPHEMERIS_TYPE": 0, "CLASSIFICATION_TYPE": "U", "NORAD_CAT_ID": 30945, "ELEMENT_SET_NO": 999, "REV_AT_EPOCH": 96488, "BSTAR": 0.0012467125, "MEAN_MOTION_DOT": 3.167e-05, "MEAN_MOTION_DDOT": 0}, "tle": {"line1": "1 30945U 99025BAK 25350.28188861  .00003167  00000+0  12467-2 0  9991", "line2": "2 30945  99.3902 359.2236 0030545  28.5823 349.1653 14.29744942964882"}}, "geometry": {"type": "Point", "coordinates": [169.51605083233366, -52.855037193216205]}}, {"type": "Feature", "properties": {"norad_id": 30946, "name": "FENGYUN 1C DEB", "group": "fengyun-1c-debris", "lat": -61.87470489583502, "lon": -88.72121684491658, "alt_km": 715.2704573565907, "timestamp": "2025-12-18T23:35:49.340257+00:00", "meta": {"OBJECT_NAME": "FENGYUN 1C DEB", "OBJECT_ID": "1999-025BAL", "EPOCH": "2025-12-17T06:49:18.317856", "MEAN_MOTION": 14.4817512, "ECCENTRICITY": 0.0089491, "INCLINATION": 99.0386, "RA_OF_ASC_NODE": 106.7882, "ARG_OF_PERICENTER": 179.4192, "MEAN_ANOMALY": 210.4096, "EPHEMERIS_TYPE": 0, "CLASSIFICATION_TYPE": "U", "NORAD_CAT_ID": 30946, "ELEMENT_SET_NO": 999, "REV_AT_EPOCH": 98417, "BSTAR": 0.00061032712, "MEAN_MOTION_DOT": 2.339e-05, "MEAN_MOTION_DDOT": 0}, "tle": {"line1": "1 30946U 99025BAL 25351.28423979  .00002339  00000+0  61033-3 0  9999", "line2": "2 30946  99.0386 106.7882 0089491 179.4192 210.4096 14.48175120984179"}}, "geometry": {"type": "Point", "coordinates": [-88.72121684491658, -61.87470489583502]}}, {"type": "Feature", "properties": {"norad_id": 30947, "name": "FENGYUN 1C DEB", "group": "fengyun-1c-debris", "lat": 80.9549776875277, "lon": 165.84585903930164, "alt_km": 810.4930744656667, "timestamp": "2025-12-18T23:35:49.340267+00:00", "meta": {"OBJECT_NAME": "FENGYUN 1C DEB", "OBJECT_ID": "1999-025BAM", "EPOCH": "2025-12-17T22:08:02.807808", "MEAN_MOTION": 14.38050747, "ECCENTRICITY": 0.00957725, "INCLINATION": 98.8089, "RA_OF_ASC_NODE": 241.6907, "ARG_OF_PERICENTER": 232.2262, "MEAN_ANOMALY": 127.0221, "EPHEMERIS_TYPE": 0, "CLASSIFICATION_TYPE": "U", "NORAD_CAT_ID": 30947, "ELEMENT_SET_NO": 999, "REV_AT_EPOCH": 98567, "BSTAR": 0.00022660227, "MEAN_MOTION_DOT": 6.74e-06, "MEAN_MOTION_DDOT": 0}, "tle": {"line1": "1 30947U 99025BAM 25351.92225472  .00000674  00000+0  22660-3 0  9992", "line2": "2 30947  98.8089 241.6907 0095772 232.2262 127.0221 14.38050747985674"}}, "geometry": {"type": "Point", "coordinates": [165.84585903930164, 80.9549776875277]}}, {"type": "Feature", "properties": {"norad_id": 30949, "name": "FENGYUN 1C DEB", "group": "fengyun-1c-debris", "lat": -16.317668496869597, "lon": 164.59959011721406, "alt_km": 857.3857383387385, "timestamp": "2025-12-18T23:35:49.340277+00:00", "meta": {"OBJECT_NAME": "FENGYUN 1C DEB", "OBJECT_ID": "1999-025BAP", "EPOCH": "2025-12-17T23:01:00.749280", "MEAN_MOTION": 14.14054006, "ECCENTRICITY": 0.01161995, "INCLINATION": 98.6977, "RA_OF_ASC_NODE": 346.1712, "ARG_OF_PERICENTER": 294.825, "MEAN_ANOMALY": 92.1685, "EPHEMERIS_TYPE": 0, "CLASSIFICATION_TYPE": "U", "NORAD_CAT_ID": 30949, "ELEMENT_SET_NO": 999, "REV_AT_EPOCH": 96590, "BSTAR": 0.00022059373, "MEAN_MOTION_DOT": 4.03e-06, "MEAN_MOTION_DDOT": 0}, "tle": {"line1": "1 30949U 99025BAP 25351.95903645  .00000403  00000+0  22059-3 0  9994", "line2": "2 30949  98.6977 346.1712 0116199 294.8250  92.1685 14.14054006965909"}}, "geometry": {"type": "Point", "coordinates": [164.59959011721406, -16.317668496869597]}}, {"type": "Feature", "properties": {"norad_id": 30954, "name": "FENGYUN 1C DEB", "group": "fengyun-1c-debris", "lat": -78.51453206177472, "lon": -136.05170596549047, "alt_km": 853.2051615940063, "timestamp": "2025-12-18T23:35:49.340288+00:00", "meta": {"OBJECT_NAME": "FENGYUN 1C DEB", "OBJECT_ID": "1999-025BAU", "EPOCH": "2025-12-18T05:42:44.125344", "MEAN_MOTION": 14.14957221, "ECCENTRICITY": 0.01288718, "INCLINATION": 98.7134, "RA_OF_ASC_NODE": 92.2248, "ARG_OF_PERICENTER": 171.7499, "MEAN_ANOMALY": 255.447, "EPHEMERIS_TYPE": 0, "CLASSIFICATION_TYPE": "U", "NORAD_CAT_ID": 30954, "ELEMENT_SET_NO": 999, "REV_AT_EPOCH": 96465, "BSTAR": 0.00095397034, "MEAN_MOTION_DOT": 1.957e-05, "MEAN_MOTION_DDOT": 0}, "tle": {"line1": "1 30954U 99025BAU 25352.23801071  .00001957  00000+0  95397-3 0  9992", "line2": "2 30954  98.7134  92.2248 0128871 171.7499 255.4470 14.14957221964650"}}, "geometry": {"type": "Point", "coordinates": [-136.05170596549047, -78.51453206177472]}}, {"type": "Feature", "properties": {"norad_id": 30956, "name": "FENGYUN 1C DEB", "group": "fengyun-1c-debris", "lat": -59.63162381135705, "lon": -168.37950713947023, "alt_km": 848.2335246580451, "timestamp": "2025-12-18T23:35:49.340298+00:00", "meta": {"OBJECT_NAME": "FENGYUN 1C DEB", "OBJECT_ID": "1999-025BAW", "EPOCH": "2025-12-17T13:14:34.844352", "MEAN_MOTION": 14.14225224, "ECCENTRICITY": 0.00491187, "INCLINATION": 98.7598, "RA_OF_ASC_NODE": 25.4736, "ARG_OF_PERICENTER": 328.9596, "MEAN_ANOMALY": 188.7624, "EPHEMERIS_TYPE": 0, "CLASSIFICATION_TYPE": "U", "NORAD_CAT_ID": 30956, "ELEMENT_SET_NO": 999, "REV_AT_EPOCH": 96375, "BSTAR": 0.00083080749, "MEAN_MOTION_DOT": 1.56e-05, "MEAN_MOTION_DDOT": 0}, "tle": {"line1": "1 30956U 99025BAW 25351.55179218  .00001560  00000+0  83081-3 0  9996", "line2": "2 30956  98.7598  25.4736 0049118 328.9596 188.7624 14.14225224963756"}}, "geometry": {"type": "Point", "coordinates": [-168.37950713947023, -59.63162381135705]}}]}